{"version": 0.6, "generator": "Overpass API 0.7.62.10 2d4cfc48", "osm3s": {"timestamp_osm_base": "2026-02-04T07:02:27Z", "copyright": "The data included in this document is from www.openstreetmap.org. The data is made available under ODbL."}, "elements": [{"type": "node", "id": 1471781389, "lat": 13.0987847, "lon": 77.3912296, "tags": {"addr:district": "Bangalore Rural", "addr:full": "Jayanagara, Indiranagara", "addr:postcode": "562123", "addr:state": "Karnataka", "amenity": "hospital", "healthcare": "hospital", "name": "Nelamangala General Hospital", "source": "OpenGovernmentData"}}, {"type": "node", "id": 1872596501, "lat": 12.9583794, "lon": 77.8155232, "tags": {"amenity": "hospital", "name": "Public Health Center"}}, {"type": "node", "id": 2034609752, "lat": 13.0927972, "lon": 77.3952859}, {"type": "node", "id": 2034609757, "lat": 13.0935015, "lon": 77.3959781}, {"type": "node", "id": 2034609758, "lat": 13.0926613, "lon": 77.3956614}, {"type": "node", "id": 2034609761, "lat": 13.0936175, "lon": 77.3955755}, {"type": "node", "id": 2279036340, "lat": 13.2299873, "lon": 77.2418476, "tags": {"addr:district": "Bangalore Rural", "addr:full": "Dobaspet", "addr:postcode": "562111", "addr:state": "Karnataka", "addr:subdistrict": "Nelamangala", "amenity": "hospital", "contact:phone": "080-27735364", "description": "Primary Health Centre", "healthcare": "centre", "name": "Government Primary Health Center", "name:kn": "\u0cb8\u0cb0\u0ccd\u0c95\u0cbe\u0cb0\u0cbf \u0caa\u0ccd\u0cb0\u0cbe\u0ca5\u0cae\u0cbf\u0c95 \u0c86\u0cb0\u0ccb\u0c97\u0ccd\u0caf \u0c95\u0cc7\u0c82\u0ca6\u0ccd\u0cb0", "source": "OpenGovernmentData"}}, {"type": "node", "id": 2432511314, "lat": 13.2160246, "lon": 77.3009625, "tags": {"addr:district": "Bangalore Rural", "addr:postcode": "562132", "addr:state": "Karnataka", "addr:subdistrict": "Nelamangala", "amenity": "hospital", "healthcare": "centre", "name": "Government Health Center, Thyamagondulu", "name:kn": "\u0cb8\u0cb0\u0ccd\u0c95\u0cbe\u0cb0\u0cbf \u0c86\u0cb0\u0ccb\u0c97\u0ccd\u0caf \u0c95\u0cc7\u0c82\u0ca6\u0ccd\u0cb0", "source": "OpenGovernmentData"}}, {"type": "node", "id": 2437398203, "lat": 13.0765044, "lon": 77.8110351}, {"type": "node", "id": 2437398204, "lat": 13.0776083, "lon": 77.8131194}, {"type": "node", "id": 2437398205, "lat": 13.0782324, "lon": 77.8124534}, {"type": "node", "id": 2437398206, "lat": 13.0783526, "lon": 77.8111164}, {"type": "node", "id": 2437398207, "lat": 13.0777749, "lon": 77.8123204}, {"type": "node", "id": 2437398209, "lat": 13.0763179, "lon": 77.8119438}, {"type": "node", "id": 2437398210, "lat": 13.0780971, "lon": 77.8132391}, {"type": "node", "id": 2472130273, "lat": 13.2571769, "lon": 77.7263698}, {"type": "node", "id": 2472130281, "lat": 13.2582081, "lon": 77.7280381}, {"type": "node", "id": 2472130283, "lat": 13.2559942, "lon": 77.7266782}, {"type": "node", "id": 2472130286, "lat": 13.2566493, "lon": 77.728167}, {"type": "node", "id": 2472130288, "lat": 13.2555164, "lon": 77.7282606}, {"type": "node", "id": 2574541213, "lat": 13.172865, "lon": 77.9352381}, {"type": "node", "id": 2574541214, "lat": 13.1723604, "lon": 77.9344313}, {"type": "node", "id": 2574541216, "lat": 13.1731104, "lon": 77.9353775}, {"type": "node", "id": 2574541221, "lat": 13.1728253, "lon": 77.9342811}, {"type": "node", "id": 2574541234, "lat": 13.1733977, "lon": 77.9348572}, {"type": "node", "id": 2574541255, "lat": 13.1726059, "lon": 77.9343025}, {"type": "node", "id": 2574541264, "lat": 13.1735199, "lon": 77.9345171}, {"type": "node", "id": 2574541272, "lat": 13.1731909, "lon": 77.9342918}, {"type": "node", "id": 2574541283, "lat": 13.1729715, "lon": 77.9353003}, {"type": "node", "id": 2574541288, "lat": 13.1735199, "lon": 77.9343025}, {"type": "node", "id": 2574541290, "lat": 13.1732379, "lon": 77.9352413}, {"type": "node", "id": 2574541298, "lat": 13.1735408, "lon": 77.9344044}, {"type": "node", "id": 2574541306, "lat": 13.1725745, "lon": 77.9348658}, {"type": "node", "id": 2574541315, "lat": 13.1723604, "lon": 77.9346297}, {"type": "node", "id": 2574541324, "lat": 13.1724335, "lon": 77.9343615}, {"type": "node", "id": 2574544577, "lat": 13.2164408, "lon": 77.8311448}, {"type": "node", "id": 2574544585, "lat": 13.2158246, "lon": 77.8313271}, {"type": "node", "id": 2574544589, "lat": 13.2157463, "lon": 77.8317027}, {"type": "node", "id": 2574544590, "lat": 13.2168043, "lon": 77.8318443}, {"type": "node", "id": 2574544592, "lat": 13.2169317, "lon": 77.831311}, {"type": "node", "id": 2575200534, "lat": 12.969933, "lon": 77.800085}, {"type": "node", "id": 2575200536, "lat": 12.967677, "lon": 77.7995778}, {"type": "node", "id": 2575200544, "lat": 12.9691436, "lon": 77.7999723}, {"type": "node", "id": 2575200548, "lat": 12.9694259, "lon": 77.7988887}, {"type": "node", "id": 2575200561, "lat": 12.9696112, "lon": 77.800082}, {"type": "node", "id": 2575200572, "lat": 12.9676979, "lon": 77.7989072}, {"type": "node", "id": 2575200578, "lat": 12.967727, "lon": 77.7995164}, {"type": "node", "id": 2575200590, "lat": 12.9683357, "lon": 77.7998192}, {"type": "node", "id": 2575200594, "lat": 12.970231, "lon": 77.7988673}, {"type": "node", "id": 3563875282, "lat": 13.0791442, "lon": 77.812568}, {"type": "node", "id": 6937956957, "lat": 13.0856858, "lon": 77.4127015, "tags": {"addr:district": "Bengaluru Rural", "addr:full": "No. 193/4, Sonde KOpposite A Circle, N. H. 4", "addr:postcode": "562123", "addr:state": "Karnataka", "amenity": "hospital", "healthcare": "hospital", "name": "M S Ramaiah Harsha Hospital", "name:kn": "\u0cb0\u0cbe\u0cae\u0caf\u0ccd\u0caf \u0cb9\u0cb0\u0ccd\u0cb7 \u0c86\u0cb8\u0ccd\u0caa\u0ca4\u0ccd\u0cb0\u0cc6", "source": "OpenGovernmentData"}}, {"type": "node", "id": 6938690199, "lat": 13.0744104, "lon": 77.7835518, "tags": {"addr:district": "Bengaluru Rural", "addr:full": "Mission Hospital Road , Hoskote Po", "addr:postcode": "562114", "addr:state": "Karnataka", "amenity": "hospital", "name": "Mission Hospital, Bengaluru Rural", "source": "OpenGovernmentData"}}, {"type": "node", "id": 6938695175, "lat": 13.0672067, "lon": 77.7802707, "tags": {"addr:district": "Bengaluru Rural", "addr:full": "A.I.R Extension, Old Madras Road, Hoskote, Near All India Radio(A.I.R)", "addr:postcode": "562114", "addr:state": "Karnataka", "amenity": "hospital", "name": "G E F Eye Hospital", "source": "OpenGovernmentData"}}, {"type": "node", "id": 6938868529, "lat": 13.0966204, "lon": 77.3972158, "tags": {"addr:district": "Bengaluru Rural", "addr:full": "Town Co-Operative Society Bldg, Opposite To Taluka Office,Paramanna Layout,B.H. Road,Nelamangala", "addr:postcode": "562123", "addr:state": "Karnataka", "amenity": "hospital", "healthcare": "hospital", "name": "Sharada Hospital, Bengaluru Rural", "source": "OpenGovernmentData"}}, {"type": "node", "id": 6939294579, "lat": 13.099244, "lon": 77.3918822, "tags": {"addr:district": "Bengaluru Rural", "addr:full": "1494, B H Road, Nelamangala Polytechnic Road", "addr:postcode": "562123", "addr:state": "Karnataka", "amenity": "hospital", "healthcare": "hospital", "name": "Prasad Hospital, Bengaluru Rural", "source": "OpenGovernmentData"}}, {"type": "node", "id": 6944097317, "lat": 13.3067986, "lon": 77.5421309, "tags": {"addr:district": "Bengaluru Rural", "addr:full": "Opp Court, Roji Pura, Doddaballapur", "addr:postcode": "561203", "addr:state": "Karnataka", "amenity": "hospital", "name": "Sarathi Putta Hospital", "source": "OpenGovernmentData"}}, {"type": "node", "id": 6944186495, "lat": 13.2980784, "lon": 77.5089687}, {"type": "node", "id": 6944231467, "lat": 13.093893, "lon": 77.39299, "tags": {"addr:district": "Bengaluru Rural", "addr:full": "6930 S.No.198, Nh-4 Sondekoppa Bye-Pass Nalamangala , Nalamangala", "addr:postcode": "562123", "addr:state": "Karnataka", "amenity": "hospital", "healthcare": "hospital", "name": "Mathru Shree Hospital", "source": "OpenGovernmentData"}}, {"type": "node", "id": 6944336081, "lat": 13.2919219, "lon": 77.5414865, "tags": {"addr:district": "Bengaluru Rural", "addr:full": "Fort Complex Fort Road, Opposite Rajmahal Theater", "addr:postcode": "561203", "addr:state": "Karnataka", "amenity": "hospital", "name": "Sri Rama Hospital", "source": "OpenGovernmentData"}}, {"type": "node", "id": 6944345114, "lat": 13.074556, "lon": 77.7821477, "tags": {"addr:district": "Bengaluru Rural", "addr:full": "Swami Vivekananda Nagara, Sulibele Road,Hoskote", "addr:postcode": "562114", "addr:state": "Karnataka", "amenity": "hospital", "name": "Shreyas Maternity Home", "source": "OpenGovernmentData"}}, {"type": "node", "id": 6947003719, "lat": 13.2508937, "lon": 77.7153259, "tags": {"addr:district": "Bengaluru Rural", "addr:full": "G.Chandrana Building, Near Old Bus Stand Building,Devanahalli Town,Bangalore International Airport", "addr:postcode": "562110", "addr:state": "Karnataka", "amenity": "hospital", "name": "Manasa Hospital, Devana Halli Town", "source": "OpenGovernmentData"}}, {"type": "node", "id": 6947605383, "lat": 13.074622, "lon": 77.7854079, "tags": {"addr:district": "Bengaluru Rural", "addr:full": "T.G. Extn. Hoskote", "addr:postcode": "562114", "addr:state": "Karnataka", "amenity": "hospital", "name": "Ashwini Hospital", "name:kn": "\u0c85\u0cb6\u0ccd\u0cb5\u0cbf\u0ca8\u0cbf \u0c86\u0cb8\u0ccd\u0caa\u0ca4\u0ccd\u0cb0\u0cc6", "source": "OpenGovernmentData"}}, {"type": "node", "id": 6947682083, "lat": 13.2876501, "lon": 77.5441284, "tags": {"addr:district": "Bengaluru Rural", "addr:full": "Jamia Masjid Complex, Fort", "addr:postcode": "561203", "addr:state": "Karnataka", "amenity": "hospital", "healthcare:speciality": "multi speciality", "name": "Abhishek Nethradhama", "source": "OpenGovernmentData"}}, {"type": "node", "id": 6948612047, "lat": 13.2922861, "lon": 77.5440493, "tags": {"addr:district": "Bengaluru Rural", "addr:full": "Doddaballapur Govt Hospital Bangalore Rural", "addr:postcode": "561203", "addr:state": "Karnataka", "amenity": "hospital", "contact:phone": "81197622141", "name": "Doddaballapur Government Hospital", "name:kn": "\u0cb8\u0cb0\u0ccd\u0c95\u0cbe\u0cb0\u0cbf \u0c86\u0cb8\u0ccd\u0caa\u0ca4\u0ccd\u0cb0\u0cc6", "operator:type": "government", "source": "OpenGovernmentData"}}, {"type": "node", "id": 6948660801, "lat": 13.2439141, "lon": 77.7111925, "tags": {"addr:district": "Bengaluru Rural", "addr:full": "Surabhi Complex, Opposite To Canara Bank, B.B.Road, Devanahalli Town", "addr:postcode": "562110", "addr:state": "Karnataka", "amenity": "hospital", "name": "Sri Shirdi Sai Hospital", "source": "OpenGovernmentData"}}, {"type": "node", "id": 6950412312, "lat": 13.074057, "lon": 77.7855326, "tags": {"addr:district": "Bengaluru Rural", "addr:full": "T.G.Extension, Hosakote", "addr:postcode": "562114", "addr:state": "Karnataka", "amenity": "hospital", "name": "Sri Srinivasa Hospital, Bengaluru Rural", "source": "OpenGovernmentData"}}, {"type": "node", "id": 7202934963, "lat": 13.1096054, "lon": 77.313051}, {"type": "node", "id": 7202934964, "lat": 13.1094957, "lon": 77.313055}, {"type": "node", "id": 7202934965, "lat": 13.1094903, "lon": 77.3128992}, {"type": "node", "id": 7202934966, "lat": 13.1096, "lon": 77.3128952}, {"type": "node", "id": 7202935795, "lat": 13.1861845, "lon": 77.8014109, "tags": {"addr:district": "Bangalore Rural", "addr:full": "Janatha Colony, Sulibele", "addr:postcode": "562114", "addr:state": "Karnataka", "addr:subdistrict": "Hosakote", "amenity": "hospital", "name": "Government Hospita Sulibele", "name:kn": "\u0cb8\u0cc2\u0cb2\u0cbf\u0cac\u0cc6\u0cb2\u0cc6 \u0cb8\u0cb0\u0ccd\u0c95\u0cbe\u0cb0\u0cbf \u0c86\u0cb8\u0ccd\u0caa\u0ca4\u0ccd\u0cb0\u0cc6", "source": "OpenGovernmentData"}}, {"type": "node", "id": 7202935811, "lat": 13.2258309, "lon": 77.3478756, "tags": {"addr:district": "Bangalore Rural", "addr:full": "Tadasighatta", "addr:postcode": "562123", "addr:state": "Karnataka", "addr:subdistrict": "Nelamangala", "amenity": "hospital", "name": "Government Hospital Tadasigatta", "name:kn": "\u0cb8\u0cb0\u0ccd\u0c95\u0cbe\u0cb0\u0cbf \u0c86\u0cb8\u0ccd\u0caa\u0ca4\u0ccd\u0cb0\u0cc6", "source": "OpenGovernmentData"}}, {"type": "node", "id": 7202935825, "lat": 13.077021, "lon": 77.801123, "tags": {"addr:district": "Bangalore Rural", "addr:full": "Hoskete, Bangalore Rural NH-4, Bangalore Road, Hoskote", "addr:postcode": "562114", "addr:state": "Karnataka", "amenity": "hospital", "name": "Hoskote Government Hospital", "name:kn": "\u0cb9\u0cca\u0cb8\u0c95\u0ccb\u0c9f\u0cc6 \u0cb8\u0cb0\u0ccd\u0c95\u0cbe\u0cb0\u0cbf \u0c86\u0cb8\u0ccd\u0caa\u0ca4\u0ccd\u0cb0\u0cc6", "source": "OpenGovernmentData"}}, {"type": "node", "id": 7202935841, "lat": 13.1376521, "lon": 77.744809, "tags": {"addr:district": "Bangalore Rural", "addr:full": "Budigere", "addr:postcode": "562129", "addr:state": "Karnataka", "addr:subdistrict": "Devanahalli", "amenity": "hospital", "name": "Government Hospital, Budigere", "name:kn": "\u0cac\u0cc2\u0ca6\u0cbf\u0c97\u0cc6\u0cb0\u0cc6 \u0cb8\u0cb0\u0ccd\u0c95\u0cbe\u0cb0\u0cbf \u0c86\u0cb8\u0ccd\u0caa\u0ca4\u0ccd\u0cb0\u0cc6", "source": "OpenGovernmentData"}}, {"type": "node", "id": 7202935842, "lat": 13.2164408, "lon": 77.8312199}, {"type": "node", "id": 7202935888, "lat": 13.046897, "lon": 77.856923, "tags": {"addr:district": "Bangalore Rural", "addr:full": "Jadigenahally", "addr:postcode": "562114", "addr:state": "Karnataka", "addr:subdistrict": "Hosakote", "amenity": "hospital", "name": "Jadigenahalli Hospital", "name:kn": "\u0c9c\u0ca1\u0cbf\u0c97\u0cc7\u0ca8\u0cb9\u0cb3\u0ccd\u0cb3\u0cbf \u0c85\u0cb8\u0ccd\u0caa\u0ca4\u0ccd\u0cb0\u0cc6", "source": "OpenGovernmentData"}}, {"type": "node", "id": 7202986971, "lat": 13.327744, "lon": 77.778006, "tags": {"addr:district": "Bangalore Rural", "addr:full": "Godlu Muddenahalli", "addr:postcode": "562110", "addr:state": "Karnataka", "addr:subdistrict": "Devanahalli", "amenity": "hospital", "name": "Government Hospital, Godlu Muddenahalli", "name:kn": "\u0cb8\u0cb0\u0ccd\u0c95\u0cbe\u0cb0\u0cbf \u0c86\u0cb8\u0ccd\u0caa\u0ca4\u0ccd\u0cb0\u0cc6", "source": "OpenGovernmentData"}}, {"type": "node", "id": 7202987008, "lat": 13.438696, "lon": 77.4605012, "tags": {"addr:district": "Bangalore Rural", "addr:full": "Hosahalli", "addr:postcode": "561204", "addr:state": "Karnataka", "addr:subdistrict": "Dod Ballapur", "amenity": "hospital", "contact:phone": "8119756126", "name": "Government Hospital, Hosahalli", "name:kn": "\u0cb8\u0cb0\u0ccd\u0c95\u0cbe\u0cb0\u0cbf \u0c86\u0cb8\u0ccd\u0caa\u0ca4\u0ccd\u0cb0\u0cc6", "source": "OpenGovernmentData"}}, {"type": "node", "id": 7202987101, "lat": 13.40437, "lon": 77.3853827, "tags": {"addr:district": "Bangalore Rural", "addr:full": "Sasalu", "addr:postcode": "561204", "addr:state": "Karnataka", "addr:subdistrict": "Dod Ballapur", "amenity": "hospital", "contact:phone": "81197658144", "name": "Sasalu Government Hostel", "source": "OpenGovernmentData"}}, {"type": "node", "id": 7579683185, "lat": 13.3000435, "lon": 77.5431097, "tags": {"addr:district": "Bengaluru Rural", "addr:full": "Doddaballapura", "addr:postcode": "561203", "addr:state": "Karnataka", "amenity": "hospital", "name": "Vinay ENT Hospital", "source": "Local Knowledge"}}, {"type": "node", "id": 7579683198, "lat": 13.2894212, "lon": 77.5428233, "tags": {"addr:district": "Bengaluru Rural", "addr:full": "Shanthinagar, Doddaballapura", "addr:postcode": "561203", "addr:state": "Karnataka", "amenity": "hospital", "name": "L V Hospital", "source": "Local Knowledge"}}, {"type": "node", "id": 7579683199, "lat": 13.2918229, "lon": 77.5426817, "tags": {"addr:district": "Bengaluru Rural", "addr:full": "Doddaballapura, Gandhi Nagar Road, Bangalore", "addr:postcode": "561203", "addr:state": "Karnataka", "amenity": "hospital", "name": "Lakshmi Eye Hospital", "source": "Local Knowledge"}}, {"type": "node", "id": 7579683202, "lat": 13.2568985, "lon": 77.5527163, "tags": {"addr:district": "Bengaluru Rural", "addr:full": "Bashettihalli, Dargajogihalli, Doddaballapura", "addr:postcode": "561203", "addr:state": "Karnataka", "amenity": "hospital", "name": "Sri Satya Sai Hospital", "source": "Local Knowledge"}}, {"type": "node", "id": 7579683205, "lat": 13.2904584, "lon": 77.5417045, "tags": {"addr:district": "Bengaluru Rural", "addr:full": "Fort Road, Kalasipalya Road, Doddaballapura", "addr:postcode": "561203", "addr:state": "Karnataka", "amenity": "hospital", "name": "Sriharsha Hospital", "source": "Local Knowledge"}}, {"type": "node", "id": 7579683206, "lat": 13.2936599, "lon": 77.5423072, "tags": {"addr:district": "Bengaluru Rural", "addr:full": "Jagannath complex, Doddaballapura", "addr:postcode": "561203", "addr:state": "Karnataka", "amenity": "hospital", "name": "Drishti Eye Hospital", "source": "Local Knowledge"}}, {"type": "node", "id": 7579683209, "lat": 13.2802652, "lon": 77.5537552, "tags": {"addr:district": "Bengaluru Rural", "addr:full": "Kempegowda Nagar, Doddaballapura", "addr:postcode": "561203", "addr:state": "Karnataka", "amenity": "hospital", "name": "Shree Kempegowda Hospital", "name:kn": "\u0c95\u0cc6\u0c82\u0cac\u0cc6\u0c97\u0ccc\u0ca1 \u0c86\u0cb8\u0ccd\u0caa\u0ca4\u0ccd\u0cb0\u0cc6", "source": "Local Knowledge"}}, {"type": "node", "id": 7579683214, "lat": 13.303695, "lon": 77.54428, "tags": {"addr:district": "Bengaluru Rural", "addr:full": "Doddaballapura", "addr:postcode": "561203", "addr:state": "Karnataka", "amenity": "hospital", "name": "Manasa Hospital", "source": "Local Knowledge"}}, {"type": "node", "id": 7579683221, "lat": 13.3051005, "lon": 77.5452852, "tags": {"addr:district": "Bengaluru Rural", "addr:full": "Doddaballapura", "addr:postcode": "561203", "addr:state": "Karnataka", "amenity": "hospital", "name": "Nandi Multispeciality Hospital", "source": "Local Knowledge"}}, {"type": "node", "id": 7579683246, "lat": 13.269246, "lon": 77.5513263}, {"type": "node", "id": 7579683255, "lat": 13.2905107, "lon": 77.5414815, "tags": {"addr:district": "Bengaluru Rural", "addr:full": "Doddaballapura", "addr:postcode": "561203", "addr:state": "Karnataka", "amenity": "hospital", "name": "Anandamaya Hospital", "source": "Local Knowledge"}}, {"type": "node", "id": 7579683260, "lat": 13.2955, "lon": 77.5417, "tags": {"addr:district": "Bengaluru Rural", "addr:full": "Vitobha Temple Street, Doddaballapura", "addr:postcode": "561203", "addr:state": "Karnataka", "amenity": "hospital", "name": "Ashwini Hospital", "name:kn": "\u0c85\u0cb6\u0ccd\u0cb5\u0cbf\u0ca8\u0cbf \u0c86\u0cb8\u0ccd\u0caa\u0ca4\u0ccd\u0cb0\u0cc6", "source": "Local Knowledge"}}, {"type": "node", "id": 7954450386, "lat": 13.2669043, "lon": 77.5654882}, {"type": "node", "id": 8188038311, "lat": 13.2523862, "lon": 77.2968345, "tags": {"addr:full": "Karnataka", "addr:state": "Karnataka", "amenity": "hospital", "name": "Primary Health Centre", "name:kn": "\u0caa\u0ccd\u0cb0\u0cbe\u0ca5\u0cae\u0cbf\u0c95 \u0c86\u0cb0\u0ccb\u0c97\u0ccd\u0caf \u0c95\u0cc7\u0c82\u0ca6\u0ccd\u0cb0"}}, {"type": "node", "id": 8188038341, "lat": 13.2216561, "lon": 77.2428881, "tags": {"addr:full": "S.L.N Pharma., Ramanagar Main Rd, Dobbaspet, Karnataka", "addr:state": "Karnataka", "amenity": "hospital", "name": "Mohit Health Care Centre & Hospital"}}, {"type": "node", "id": 8188038348, "lat": 13.2158806, "lon": 77.3005209, "tags": {"addr:full": "Thyamagondlu, Karnataka", "addr:state": "Karnataka", "amenity": "hospital", "name": "Community Health Centre", "name:kn": "\u0cb8\u0cae\u0cc1\u0ca6\u0cbe\u0caf \u0c86\u0cb0\u0ccb\u0c97\u0ccd\u0caf \u0c95\u0cc7\u0c82\u0ca6\u0ccd\u0cb0"}}, {"type": "node", "id": 8188038364, "lat": 13.178885, "lon": 77.231133, "tags": {"addr:full": "Hospital, Sivaganga, Dabaspete, Bangalore Rural, SH-3, Mangadi Road, Nelamangala, Nelamangala, Karnataka", "addr:state": "Karnataka", "amenity": "hospital", "name": "Primary Health Centre", "name:kn": "\u0caa\u0ccd\u0cb0\u0cbe\u0ca5\u0cae\u0cbf\u0c95 \u0c86\u0cb0\u0ccb\u0c97\u0ccd\u0caf \u0c95\u0cc7\u0c82\u0ca6\u0ccd\u0cb0"}}, {"type": "node", "id": 9870740849, "lat": 13.2683592, "lon": 77.5513563}, {"type": "node", "id": 9870740850, "lat": 13.2684175, "lon": 77.5521849}, {"type": "node", "id": 9870740851, "lat": 13.2692824, "lon": 77.5520801}, {"type": "node", "id": 10250237536, "lat": 13.2343267, "lon": 77.2418341}, {"type": "node", "id": 10273060107, "lat": 13.2339445, "lon": 77.2409142}, {"type": "node", "id": 10273060108, "lat": 13.2346061, "lon": 77.2407585}, {"type": "node", "id": 10273083209, "lat": 13.2349873, "lon": 77.2409007}, {"type": "node", "id": 13014837390, "lat": 13.2667008, "lon": 77.5654941}, {"type": "node", "id": 13014837391, "lat": 13.2678177, "lon": 77.565585}, {"type": "node", "id": 13014837392, "lat": 13.2678598, "lon": 77.5654292}, {"type": "node", "id": 13014837393, "lat": 13.2679433, "lon": 77.5653219}, {"type": "node", "id": 13014837394, "lat": 13.2681913, "lon": 77.5638172}, {"type": "node", "id": 13014837395, "lat": 13.2671445, "lon": 77.5641578}, {"type": "node", "id": 13196060058, "lat": 12.9700275, "lon": 77.7996989}, {"type": "node", "id": 13227875727, "lat": 13.2184696, "lon": 77.2508626}, {"type": "node", "id": 13227875728, "lat": 13.2183627, "lon": 77.2506881}, {"type": "node", "id": 13227875729, "lat": 13.2175115, "lon": 77.2502482}, {"type": "node", "id": 13227875730, "lat": 13.2175011, "lon": 77.2494435}, {"type": "node", "id": 13227875731, "lat": 13.2160701, "lon": 77.2490787}, {"type": "node", "id": 13227875732, "lat": 13.2155583, "lon": 77.2503984}, {"type": "node", "id": 13227875733, "lat": 13.216232, "lon": 77.2514445}, {"type": "node", "id": 13227875734, "lat": 13.2164566, "lon": 77.2520292}, {"type": "node", "id": 13227875735, "lat": 13.217031, "lon": 77.2522652}, {"type": "node", "id": 13243093992, "lat": 13.298992, "lon": 77.5091243}, {"type": "node", "id": 13243093993, "lat": 13.2992948, "lon": 77.5077242}, {"type": "node", "id": 13243093994, "lat": 13.2980941, "lon": 77.507515}, {"type": "node", "id": 13418393036, "lat": 13.0658923, "lon": 77.8264081}, {"type": "node", "id": 13418393037, "lat": 13.0649151, "lon": 77.8264564}, {"type": "node", "id": 13418393038, "lat": 13.0658557, "lon": 77.8271967}, {"type": "node", "id": 13418393039, "lat": 13.0644396, "lon": 77.8271216}, {"type": "node", "id": 13418393040, "lat": 13.0643821, "lon": 77.8275293}, {"type": "node", "id": 13418393041, "lat": 13.0639693, "lon": 77.8274488}, {"type": "node", "id": 13418393042, "lat": 13.0640424, "lon": 77.8265047}, {"type": "way", "id": 192927611, "nodes": [2034609761, 2034609757, 2034609758, 2034609752, 2034609761], "tags": {"addr:district": "Bengaluru Urban", "addr:full": "193/4m Sondekoppa Circle, N.H.-4, Nelamangala", "addr:postcode": "562123", "addr:state": "Karnataka", "alt_name": "Harsha Ramaiah Hospital", "amenity": "hospital", "email": "contact@harshainstitutions.com", "emergency": "yes", "healthcare": "hospital", "name": "M S Ramaiah Harsha Hospital", "name:kn": "\u0cb0\u0cbe\u0cae\u0caf\u0ccd\u0caf \u0cb9\u0cb0\u0ccd\u0cb7 \u0c86\u0cb8\u0ccd\u0caa\u0ca4\u0ccd\u0cb0\u0cc6", "operator:type": "private", "source": "OpenGovernmentData", "website": "https://www.harshainstitutions.com/", "wheelchair": "yes"}}, {"type": "way", "id": 235666047, "nodes": [2437398203, 2437398206, 3563875282, 2437398205, 2437398210, 2437398204, 2437398207, 2437398209, 2437398203], "tags": {"addr:district": "Bengaluru Rural", "addr:full": "30Th Km Mile Stone, National Higway, Hosakote", "addr:postcode": "562114", "addr:state": "Karnataka", "alt_name": "MVJ Hospital", "amenity": "hospital", "emergency": "yes", "healthcare": "hospital", "name": "Mvj Hospital", "name:kn": "\u0c9c\u0caf\u0cb0\u0cbe\u0c82 \u0c86\u0cb8\u0ccd\u0caa\u0ca4\u0ccd\u0cb0\u0cc6", "source": "OpenGovernmentData"}}, {"type": "way", "id": 239436040, "nodes": [2472130283, 2472130288, 2472130286, 2472130281, 2472130273, 2472130283], "tags": {"addr:district": "Bangalore Rural", "addr:full": "Devanahalli", "addr:postcode": "562110", "addr:state": "Karnataka", "amenity": "hospital", "name": "Government Hospital, Devanahalli", "name:kn": "\u0cb8\u0cb0\u0ccd\u0c95\u0cbe\u0cb0\u0cbf \u0c86\u0cb8\u0ccd\u0caa\u0ca4\u0ccd\u0cb0\u0cc6, \u0ca6\u0cc7\u0cb5\u0ca8\u0cb9\u0cb3\u0ccd\u0cb3\u0cbf", "source": "OpenGovernmentData"}}, {"type": "way", "id": 251197713, "nodes": [2574541288, 2574541272, 2574541221, 2574541255, 2574541324, 2574541214, 2574541315, 2574541306, 2574541213, 2574541283, 2574541216, 2574541290, 2574541234, 2574541264, 2574541298, 2574541288], "tags": {"addr:district": "Bangalore Rural", "addr:full": "Bylanarasapura", "addr:postcode": "562122", "addr:state": "Karnataka", "addr:subdistrict": "Hosakote", "amenity": "hospital", "emergency": "no", "healthcare": "centre", "name": "Bylanarsapura Primary Health Centre", "name:kn": "\u0cac\u0cc8\u0cb2\u0ca8\u0cb0\u0cb8\u0cbe\u0caa\u0cc1\u0cb0, \u0caa\u0ccd\u0cb0\u0cbe\u0ca5\u0cae\u0cbf\u0c95 \u0c86\u0cb0\u0ccb\u0c97\u0ccd\u0caf \u0c95\u0cc7\u0c82\u0ca6\u0ccd\u0cb0", "source": "OpenGovernmentData"}}, {"type": "way", "id": 251197898, "nodes": [7202935842, 2574544577, 2574544585, 2574544589, 2574544590, 2574544592, 7202935842], "tags": {"addr:district": "Bangalore Rural", "addr:full": "Bendiganahalli", "addr:postcode": "562135", "addr:state": "Karnataka", "addr:subdistrict": "Hosakote", "amenity": "hospital", "emergency": "no", "healthcare": "hospital", "name": "Bendiganahalli Primary Health Centre", "name:kn": "\u0cac\u0cc6\u0c82\u0ca1\u0cbf\u0c97\u0cbe\u0ca8\u0cb9\u0cb3\u0ccd\u0cb3\u0cbf \u0caa\u0ccd\u0cb0\u0cbe\u0ca5\u0cae\u0cbf\u0c95 \u0c86\u0cb0\u0ccb\u0c97\u0ccd\u0caf \u0c95\u0cc7\u0c82\u0ca6\u0ccd\u0cb0", "source": "OpenGovernmentData"}}, {"type": "way", "id": 251275242, "nodes": [2575200578, 2575200572, 2575200548, 2575200594, 13196060058, 2575200534, 2575200561, 2575200544, 2575200590, 2575200536, 2575200578], "tags": {"amenity": "hospital", "name": "Ayurvedagram Heritage Wellness Centre"}}, {"type": "way", "id": 771581322, "nodes": [7202934966, 7202934963, 7202934964, 7202934965, 7202934966], "tags": {"addr:district": "Bangalore Rural", "addr:full": "Modalakote", "addr:postcode": "562132", "addr:state": "Karnataka", "addr:subdistrict": "Nelamangala", "amenity": "hospital", "building": "yes", "contact:phone": "8277517962", "healthcare": "hospital", "name": "Madalakote Government Hospital", "name:kn": "\u0cae\u0ca6\u0cb2\u0c95\u0ccb\u0c9f\u0cc6 \u0cb8\u0cb0\u0ccd\u0c95\u0cbe\u0cb0\u0cbf \u0c85\u0cb8\u0ccd\u0caa\u0ca4\u0ccd\u0cb0\u0cc6", "source": "OpenGovernmentData"}}, {"type": "way", "id": 1076391781, "nodes": [7579683246, 9870740851, 9870740850, 9870740849, 7579683246], "tags": {"addr:district": "Bengaluru Rural", "addr:full": "Doddaballapur, Bashettihalli", "addr:postcode": "561203", "addr:state": "Karnataka", "amenity": "hospital", "name": "Manipal Hospital", "name:kn": "\u0cae\u0ca3\u0cbf\u0caa\u0cbe\u0cb2 \u0c86\u0cb8\u0ccd\u0caa\u0ca4\u0ccd\u0cb0\u0cc6", "old_name": "Columbia Asia Hospital", "source": "Local Knowledge"}}, {"type": "way", "id": 1123316684, "nodes": [10250237536, 10273083209, 10273060108, 10273060107, 10250237536], "tags": {"amenity": "hospital", "name": "WeCare Multispeciality Hospital"}}, {"type": "way", "id": 1416230882, "nodes": [13014837390, 13014837395, 13014837394, 13014837393, 13014837392, 13014837391, 7954450386, 13014837390], "tags": {"amenity": "hospital", "name": "ESI Hospital"}}, {"type": "way", "id": 1441649193, "nodes": [13227875727, 13227875735, 13227875734, 13227875733, 13227875732, 13227875731, 13227875730, 13227875729, 13227875728, 13227875727], "tags": {"amenity": "hospital", "name": "Manav Charitable Hospital"}}, {"type": "way", "id": 1443200784, "nodes": [6944186495, 13243093994, 13243093993, 13243093992, 6944186495], "tags": {"addr:district": "Bengaluru Rural", "addr:full": "Kakkalli Road, Kodigehalli Post, Doddaballapur Taluk, Bengaluru Rural", "addr:state": "Karnataka", "amenity": "hospital", "name": "Atreya Ayurvedic Medical College, Hospital and Research Centre", "operator:type": "private", "source": "OpenGovernmentData", "website": "http://dpal.kar.nic.in/Kanunu%20padakosha%20PDF%20Files/Recognised%20Hospitals.pdf"}}, {"type": "way", "id": 1462859697, "nodes": [13418393042, 13418393037, 13418393036, 13418393038, 13418393039, 13418393040, 13418393041, 13418393042], "tags": {"amenity": "hospital", "name": "Mother and Child Hospital"}}]}